{
  "type": "FeatureCollection",
  "features": [
    {
      "type": "Feature",
      "properties": {},
      "geometry": {
        "type": "LineString",
        "coordinates": [
          [
            79.5307,
            17.987382
          ],
          [
            79.530711,
            17.986519
          ],
          [
            79.531934,
            17.986514
          ],
          [
            79.533114,
            17.986581
          ],
          [
            79.533425,
            17.984152
          ],
          [
            79.532105,
            17.984096
          ],
          [
            79.530716,
            17.985683
          ],
          [
            79.530721,
            17.986652
          ]
        ]
      }
    }
  ]
}